start=new Date('2022-09-01T00:00:00.000Z').valueOf();
sats=[{"BSTAR":"-0.00798640000000","LAUNCH_DATE":"2022-07-24","INCLINATION":"53.2170","TLE_LINE2":"2 53253  53.2170 213.3848 0007566 280.2961 112.3430 15.72481536  1309","CENTER_NAME":"EARTH","NORAD_CAT_ID":"53253","MEAN_MOTION":"15.72481536","TLE_LINE1":"1 53253U 22086M   22243.91667824 -.00988242  00000-0 -79864-2 0  9993","EPHEMERIS_TYPE":"0","RCS_SIZE":"LARGE","EPOCH":"2022-08-31T22:00:00.999936","MEAN_MOTION_DDOT":"0.0000000000000","REF_FRAME":"TEME","MEAN_ELEMENT_THEORY":"SGP4","GP_ID":"211427883","FILE":"3552761","RA_OF_ASC_NODE":"213.3848","APOAPSIS":"356.901","SEMIMAJOR_AXIS":"6729.944","OBJECT_ID":"2022-086M","ARG_OF_PERICENTER":"280.2961","PERIOD":"91.575","OBJECT_TYPE":"PAYLOAD","CLASSIFICATION_TYPE":"U","SITE":"AFETR","ECCENTRICITY":"0.00075660","ELEMENT_SET_NO":"999","REV_AT_EPOCH":"130","MEAN_ANOMALY":"112.3430","TIME_SYSTEM":"UTC","PERIAPSIS":"346.717","OBJECT_NAME":"STARLINK-4133","DECAY_DATE":null,"COUNTRY_CODE":"US","MEAN_MOTION_DOT":"-0.00988242"},{"TIME_SYSTEM":"UTC","PERIAPSIS":"349.491","OBJECT_NAME":"STARLINK-4134","DECAY_DATE":null,"COUNTRY_CODE":"US","MEAN_MOTION_DOT":"-0.01050776","SITE":"AFETR","CLASSIFICATION_TYPE":"U","ECCENTRICITY":"0.00033100","REV_AT_EPOCH":"130","ELEMENT_SET_NO":"999","MEAN_ANOMALY":"26.3181","OBJECT_ID":"2022-086N","ARG_OF_PERICENTER":"5.0951","OBJECT_TYPE":"PAYLOAD","PERIOD":"91.573","APOAPSIS":"353.947","SEMIMAJOR_AXIS":"6729.854","FILE":"3552761","RA_OF_ASC_NODE":"213.3822","MEAN_ELEMENT_THEORY":"SGP4","GP_ID":"211427302","CENTER_NAME":"EARTH","NORAD_CAT_ID":"53254","MEAN_MOTION":"15.72513216","TLE_LINE1":"1 53254U 22086N   22243.91667824 -.01050776  00000-0 -85585-2 0  9994","EPHEMERIS_TYPE":"0","RCS_SIZE":"LARGE","EPOCH":"2022-08-31T22:00:00.999936","MEAN_MOTION_DDOT":"0.0000000000000","REF_FRAME":"TEME","BSTAR":"-0.00855850000000","LAUNCH_DATE":"2022-07-24","INCLINATION":"53.2176","TLE_LINE2":"2 53254  53.2176 213.3822 0003310   5.0951  26.3181 15.72513216  1301"},{"GP_ID":"211427170","MEAN_ELEMENT_THEORY":"SGP4","FILE":"3552761","RA_OF_ASC_NODE":"213.3817","BSTAR":"-0.00851660000000","TLE_LINE2":"2 53255  53.2177 213.3817 0008715 336.2944  57.5311 15.72539926  1309","INCLINATION":"53.2177","LAUNCH_DATE":"2022-07-24","MEAN_MOTION":"15.72539926","CENTER_NAME":"EARTH","NORAD_CAT_ID":"53255","MEAN_MOTION_DDOT":"0.0000000000000","REF_FRAME":"TEME","EPHEMERIS_TYPE":"0","RCS_SIZE":"LARGE","EPOCH":"2022-08-31T22:00:00.999936","TLE_LINE1":"1 53255U 22086P   22243.91667824 -.01050760  00000-0 -85166-2 0  9993","CLASSIFICATION_TYPE":"U","SITE":"AFETR","MEAN_ANOMALY":"57.5311","ECCENTRICITY":"0.00087150","ELEMENT_SET_NO":"999","REV_AT_EPOCH":"130","DECAY_DATE":null,"PERIAPSIS":"345.778","OBJECT_NAME":"STARLINK-4142","TIME_SYSTEM":"UTC","MEAN_MOTION_DOT":"-0.01050760","COUNTRY_CODE":"US","APOAPSIS":"357.508","SEMIMAJOR_AXIS":"6729.778","OBJECT_ID":"2022-086P","ARG_OF_PERICENTER":"336.2944","PERIOD":"91.572","OBJECT_TYPE":"PAYLOAD"},{"BSTAR":"-0.00948470000000","LAUNCH_DATE":"2022-07-24","INCLINATION":"53.2173","TLE_LINE2":"2 53256  53.2173 213.3846 0003632 353.0563  40.1193 15.72618275  1306","NORAD_CAT_ID":"53256","CENTER_NAME":"EARTH","MEAN_MOTION":"15.72618275","TLE_LINE1":"1 53256U 22086Q   22243.91667824 -.01156976  00000-0 -94847-2 0  9996","RCS_SIZE":"LARGE","EPOCH":"2022-08-31T22:00:00.999936","EPHEMERIS_TYPE":"0","REF_FRAME":"TEME","MEAN_MOTION_DDOT":"0.0000000000000","MEAN_ELEMENT_THEORY":"SGP4","GP_ID":"211427445","FILE":"3552761","RA_OF_ASC_NODE":"213.3846","APOAPSIS":"353.863","SEMIMAJOR_AXIS":"6729.554","ARG_OF_PERICENTER":"353.0563","OBJECT_ID":"2022-086Q","OBJECT_TYPE":"PAYLOAD","PERIOD":"91.567","SITE":"AFETR","CLASSIFICATION_TYPE":"U","ELEMENT_SET_NO":"999","ECCENTRICITY":"0.00036320","REV_AT_EPOCH":"130","MEAN_ANOMALY":"40.1193","TIME_SYSTEM":"UTC","OBJECT_NAME":"STARLINK-4147","PERIAPSIS":"348.975","DECAY_DATE":null,"COUNTRY_CODE":"US","MEAN_MOTION_DOT":"-0.01156976"},{"SEMIMAJOR_AXIS":"6729.716","APOAPSIS":"353.501","PERIOD":"91.570","OBJECT_TYPE":"PAYLOAD","OBJECT_ID":"2022-086R","ARG_OF_PERICENTER":"9.4892","MEAN_ANOMALY":"26.1443","ELEMENT_SET_NO":"999","REV_AT_EPOCH":"130","ECCENTRICITY":"0.00028530","SITE":"AFETR","CLASSIFICATION_TYPE":"U","MEAN_MOTION_DOT":"-0.01050791","COUNTRY_CODE":"US","DECAY_DATE":null,"OBJECT_NAME":"STARLINK-4144","PERIAPSIS":"349.661","TIME_SYSTEM":"UTC","TLE_LINE2":"2 53257  53.2177 213.3809 0002853   9.4892  26.1443 15.72561732  1308","LAUNCH_DATE":"2022-07-24","INCLINATION":"53.2177","BSTAR":"-0.00854280000000","MEAN_MOTION_DDOT":"0.0000000000000","REF_FRAME":"TEME","RCS_SIZE":"LARGE","EPHEMERIS_TYPE":"0","EPOCH":"2022-08-31T22:00:00.999936","TLE_LINE1":"1 53257U 22086R   22243.91667824 -.01050791  00000-0 -85428-2 0  9990","MEAN_MOTION":"15.72561732","NORAD_CAT_ID":"53257","CENTER_NAME":"EARTH","GP_ID":"211427732","MEAN_ELEMENT_THEORY":"SGP4","RA_OF_ASC_NODE":"213.3809","FILE":"3552761"},{"MEAN_MOTION_DOT":"-0.01083589","COUNTRY_CODE":"US","TIME_SYSTEM":"UTC","DECAY_DATE":null,"PERIAPSIS":"349.634","OBJECT_NAME":"STARLINK-4127","ELEMENT_SET_NO":"999","REV_AT_EPOCH":"130","ECCENTRICITY":"0.00028330","MEAN_ANOMALY":"37.9843","SITE":"AFETR","CLASSIFICATION_TYPE":"U","OBJECT_TYPE":"PAYLOAD","PERIOD":"91.570","OBJECT_ID":"2022-086S","ARG_OF_PERICENTER":"356.4256","SEMIMAJOR_AXIS":"6729.675","APOAPSIS":"353.447","RA_OF_ASC_NODE":"213.3837","FILE":"3552761","MEAN_ELEMENT_THEORY":"SGP4","GP_ID":"211426885","EPHEMERIS_TYPE":"0","RCS_SIZE":"LARGE","EPOCH":"2022-08-31T22:00:00.999936","TLE_LINE1":"1 53258U 22086S   22243.91667824 -.01083589  00000-0 -88345-2 0  9993","MEAN_MOTION_DDOT":"0.0000000000000","REF_FRAME":"TEME","CENTER_NAME":"EARTH","NORAD_CAT_ID":"53258","MEAN_MOTION":"15.72575762","INCLINATION":"53.2173","LAUNCH_DATE":"2022-07-24","TLE_LINE2":"2 53258  53.2173 213.3837 0002833 356.4256  37.9843 15.72575762  1305","BSTAR":"-0.00883450000000"},{"FILE":"3552761","RA_OF_ASC_NODE":"213.3805","GP_ID":"211427588","MEAN_ELEMENT_THEORY":"SGP4","MEAN_MOTION":"15.72568611","NORAD_CAT_ID":"53259","CENTER_NAME":"EARTH","REF_FRAME":"TEME","MEAN_MOTION_DDOT":"0.0000000000000","TLE_LINE1":"1 53259U 22086T   22243.91667824 -.01050810  00000-0 -85408-2 0  9992","EPHEMERIS_TYPE":"0","RCS_SIZE":"LARGE","EPOCH":"2022-08-31T22:00:00.999936","BSTAR":"-0.00854080000000","TLE_LINE2":"2 53259  53.2177 213.3805 0002768  10.4172  25.8191 15.72568611  1303","LAUNCH_DATE":"2022-07-24","INCLINATION":"53.2177","PERIAPSIS":"349.698","OBJECT_NAME":"STARLINK-4140","DECAY_DATE":null,"TIME_SYSTEM":"UTC","COUNTRY_CODE":"US","MEAN_MOTION_DOT":"-0.01050810","CLASSIFICATION_TYPE":"U","SITE":"AFETR","MEAN_ANOMALY":"25.8191","ELEMENT_SET_NO":"999","REV_AT_EPOCH":"130","ECCENTRICITY":"0.00027680","ARG_OF_PERICENTER":"10.4172","OBJECT_ID":"2022-086T","OBJECT_TYPE":"PAYLOAD","PERIOD":"91.570","APOAPSIS":"353.424","SEMIMAJOR_AXIS":"6729.696"},{"OBJECT_NAME":"STARLINK-4136","PERIAPSIS":"349.383","DECAY_DATE":null,"TIME_SYSTEM":"UTC","COUNTRY_CODE":"US","MEAN_MOTION_DOT":"-0.01176830","SITE":"AFETR","CLASSIFICATION_TYPE":"U","MEAN_ANOMALY":"35.9594","ECCENTRICITY":"0.00028710","ELEMENT_SET_NO":"999","REV_AT_EPOCH":"130","OBJECT_ID":"2022-086U","ARG_OF_PERICENTER":"359.0170","OBJECT_TYPE":"PAYLOAD","PERIOD":"91.565","APOAPSIS":"353.247","SEMIMAJOR_AXIS":"6729.450","FILE":"3552761","RA_OF_ASC_NODE":"213.3831","GP_ID":"211427028","MEAN_ELEMENT_THEORY":"SGP4","MEAN_MOTION":"15.72654957","NORAD_CAT_ID":"53260","CENTER_NAME":"EARTH","REF_FRAME":"TEME","MEAN_MOTION_DDOT":"0.0000000000000","TLE_LINE1":"1 53260U 22086U   22243.91667824 -.01176830  00000-0 -96568-2 0  9994","EPOCH":"2022-08-31T22:00:00.999936","RCS_SIZE":"LARGE","EPHEMERIS_TYPE":"0","BSTAR":"-0.00965680000000","TLE_LINE2":"2 53260  53.2173 213.3831 0002871 359.0170  35.9594 15.72654957  1303","LAUNCH_DATE":"2022-07-24","INCLINATION":"53.2173"},{"BSTAR":"-0.00669520000000","TLE_LINE2":"2 53261  53.2175 213.3813 0003128 358.5527  39.5696 15.72429300  1307","INCLINATION":"53.2175","LAUNCH_DATE":"2022-07-24","MEAN_MOTION":"15.72429300","CENTER_NAME":"EARTH","NORAD_CAT_ID":"53261","REF_FRAME":"TEME","MEAN_MOTION_DDOT":"0.0000000000000","TLE_LINE1":"1 53261U 22086V   22243.91667824 -.00825738  00000-0 -66952-2 0  9996","EPHEMERIS_TYPE":"0","RCS_SIZE":"LARGE","EPOCH":"2022-08-31T22:00:00.999936","GP_ID":"211427884","MEAN_ELEMENT_THEORY":"SGP4","FILE":"3552761","RA_OF_ASC_NODE":"213.3813","APOAPSIS":"354.064","SEMIMAJOR_AXIS":"6730.093","ARG_OF_PERICENTER":"358.5527","OBJECT_ID":"2022-086V","PERIOD":"91.578","OBJECT_TYPE":"PAYLOAD","SITE":"AFETR","CLASSIFICATION_TYPE":"U","MEAN_ANOMALY":"39.5696","ELEMENT_SET_NO":"999","ECCENTRICITY":"0.00031280","REV_AT_EPOCH":"130","PERIAPSIS":"349.853","OBJECT_NAME":"STARLINK-4062","DECAY_DATE":null,"TIME_SYSTEM":"UTC","COUNTRY_CODE":"US","MEAN_MOTION_DOT":"-0.00825738"},{"SITE":"AFETR","CLASSIFICATION_TYPE":"U","MEAN_ANOMALY":"38.8932","ELEMENT_SET_NO":"999","ECCENTRICITY":"0.00029280","REV_AT_EPOCH":"130","PERIAPSIS":"349.513","OBJECT_NAME":"STARLINK-4085","DECAY_DATE":null,"TIME_SYSTEM":"UTC","COUNTRY_CODE":"US","MEAN_MOTION_DOT":"-0.01074748","APOAPSIS":"353.453","SEMIMAJOR_AXIS":"6729.618","ARG_OF_PERICENTER":"357.9320","OBJECT_ID":"2022-086W","OBJECT_TYPE":"PAYLOAD","PERIOD":"91.568","GP_ID":"211427303","MEAN_ELEMENT_THEORY":"SGP4","FILE":"3552761","RA_OF_ASC_NODE":"213.3813","BSTAR":"-0.00874630000000","TLE_LINE2":"2 53262  53.2173 213.3813 0002928 357.9320  38.8932 15.72595893  1303","INCLINATION":"53.2173","LAUNCH_DATE":"2022-07-24","MEAN_MOTION":"15.72595893","CENTER_NAME":"EARTH","NORAD_CAT_ID":"53262","REF_FRAME":"TEME","MEAN_MOTION_DDOT":"0.0000000000000","TLE_LINE1":"1 53262U 22086W   22243.91667824 -.01074748  00000-0 -87463-2 0  9995","EPHEMERIS_TYPE":"0","RCS_SIZE":"LARGE","EPOCH":"2022-08-31T22:00:00.999936"}];
